<?xml version="1.0" encoding="UTF-8"?>
<kml xmlns="http://www.opengis.net/kml/2.2"><Document>
  <n>Respaldo DATALOG-01 05/09/2026 a 06/09/2026</n>
  <Style id="pointStyle"><IconStyle><color>ff00c8ff</color><scale>0.8</scale></IconStyle></Style>
  <Placemark><n>Ruta</n><LineString><tessellate>1</tessellate>
    <coordinates>-74.34562817,4.8232275,0 -74.34577733,4.823228,0 -74.3458055,4.8231245,0 -74.34579883,4.823130667,0 -74.34618,4.822883333,0 -74.34953933,4.82111,0 -74.352312,4.825308333,0 -74.333871,4.787556,0 -74.228654,4.701296,0 -74.213499,4.714393,0 -74.213507,4.714371,0 -74.213523,4.714405,0 -74.227335,4.701941,0 -74.284963,4.730074,0 -74.284976,4.72964,0 -74.284988,4.72963,0 -74.284953,4.729622,0 -74.284999,4.729672,0 -74.284965,4.729666,0 -74.285038,4.729747,0 -74.28497,4.729664,0 -74.284909,4.72952,0 -74.284924,4.729555,0 -74.284943,4.729577,0 -74.284987,4.729627,0 -74.283957,4.728576,0 -74.348944,4.818283,0 -74.353031,4.826695,0 -74.353054,4.826709,0 -74.353084,4.826698,0 -74.353061,4.826728,0 -74.353039,4.826712,0 -74.353064,4.826707,0 -74.353095,4.826714,0 -74.353042,4.826722,0 -74.353077,4.826717,0 -74.353054,4.826705,0 -74.35307,4.826717,0 -74.353083,4.826727,0 -74.353043,4.82671,0 -74.353104,4.826736,0 -74.353075,4.826729,0 -74.353023,4.826688,0 -74.352947,4.82674,0 -74.352962,4.826761,0 -74.35295,4.82672,0 -74.352984,4.826732,0 -74.352962,4.826736,0 -74.352947,4.826757,0 -74.352952,4.826721,0 -74.35298067,4.826742167,0 -74.35189467,4.825195667,0 -74.352325,4.82535,0 -74.352341,4.825346,0 -74.35232267,4.825341333,0 -74.35231983,4.825330333,0 -74.3523045,4.825351833,0 -74.352306,4.825353,0 -74.352312,4.825376,0 -74.35232,4.825387,0 -74.352311,4.825377,0 -74.352315,4.825371,0 -74.352313,4.825362,0 -74.352297,4.82537,0 -74.352289,4.825379,0 -74.352396,4.825363,0 -74.352328,4.8254,0 -74.352331,4.825376,0 -74.352334,4.825393,0</coordinates></LineString></Placemark>
    <Placemark>
      <n>#1 DATALOG-01</n>
      <description>05/09/2026 16:11:03 | Estado: NUEVA UBICACION | Bat: 0%</description>
      <styleUrl>#pointStyle</styleUrl>
      <Point><coordinates>-74.34562817,4.8232275,0</coordinates></Point>
    </Placemark>
    <Placemark>
      <n>#2 DATALOG-01</n>
      <description>05/09/2026 16:38:13 | Estado: NUEVA UBICACION | Bat: 0%</description>
      <styleUrl>#pointStyle</styleUrl>
      <Point><coordinates>-74.34577733,4.823228,0</coordinates></Point>
    </Placemark>
    <Placemark>
      <n>#3 DATALOG-01</n>
      <description>05/09/2026 17:11:27 | Estado: NUEVA UBICACION | Bat: 0%</description>
      <styleUrl>#pointStyle</styleUrl>
      <Point><coordinates>-74.3458055,4.8231245,0</coordinates></Point>
    </Placemark>
    <Placemark>
      <n>#4 DATALOG-01</n>
      <description>05/09/2026 17:26:46 | Estado: NUEVA UBICACION | Bat: 0%</description>
      <styleUrl>#pointStyle</styleUrl>
      <Point><coordinates>-74.34579883,4.823130667,0</coordinates></Point>
    </Placemark>
    <Placemark>
      <n>#5 DATALOG-01</n>
      <description>05/09/2026 18:14:06 | Estado: NUEVA UBICACION | Bat: 0%</description>
      <styleUrl>#pointStyle</styleUrl>
      <Point><coordinates>-74.34618,4.822883333,0</coordinates></Point>
    </Placemark>
    <Placemark>
      <n>#6 DATALOG-01</n>
      <description>05/09/2026 18:29:49 | Estado: NUEVA UBICACION | Bat: 0%</description>
      <styleUrl>#pointStyle</styleUrl>
      <Point><coordinates>-74.34953933,4.82111,0</coordinates></Point>
    </Placemark>
    <Placemark>
      <n>#7 DATALOG-01</n>
      <description>05/09/2026 18:45:58 | Estado: NUEVA UBICACION | Bat: 0%</description>
      <styleUrl>#pointStyle</styleUrl>
      <Point><coordinates>-74.352312,4.825308333,0</coordinates></Point>
    </Placemark>
    <Placemark>
      <n>#8 DATALOG-01</n>
      <description>05/09/2026 19:33:37 | Estado: REENVIO PENDIENTE | Bat: 0%</description>
      <styleUrl>#pointStyle</styleUrl>
      <Point><coordinates>-74.333871,4.787556,0</coordinates></Point>
    </Placemark>
    <Placemark>
      <n>#9 DATALOG-01</n>
      <description>05/09/2026 19:49:36 | Estado: REENVIO PENDIENTE | Bat: 0%</description>
      <styleUrl>#pointStyle</styleUrl>
      <Point><coordinates>-74.228654,4.701296,0</coordinates></Point>
    </Placemark>
    <Placemark>
      <n>#10 DATALOG-01</n>
      <description>05/09/2026 20:05:37 | Estado: REENVIO PENDIENTE | Bat: 0%</description>
      <styleUrl>#pointStyle</styleUrl>
      <Point><coordinates>-74.213499,4.714393,0</coordinates></Point>
    </Placemark>
    <Placemark>
      <n>#11 DATALOG-01</n>
      <description>05/09/2026 20:21:38 | Estado: REENVIO PENDIENTE | Bat: 0%</description>
      <styleUrl>#pointStyle</styleUrl>
      <Point><coordinates>-74.213507,4.714371,0</coordinates></Point>
    </Placemark>
    <Placemark>
      <n>#12 DATALOG-01</n>
      <description>05/09/2026 20:37:38 | Estado: REENVIO PENDIENTE | Bat: 0%</description>
      <styleUrl>#pointStyle</styleUrl>
      <Point><coordinates>-74.213523,4.714405,0</coordinates></Point>
    </Placemark>
    <Placemark>
      <n>#13 DATALOG-01</n>
      <description>05/09/2026 20:53:39 | Estado: REENVIO PENDIENTE | Bat: 0%</description>
      <styleUrl>#pointStyle</styleUrl>
      <Point><coordinates>-74.227335,4.701941,0</coordinates></Point>
    </Placemark>
    <Placemark>
      <n>#14 DATALOG-01</n>
      <description>05/09/2026 21:09:39 | Estado: REENVIO PENDIENTE | Bat: 0%</description>
      <styleUrl>#pointStyle</styleUrl>
      <Point><coordinates>-74.284963,4.730074,0</coordinates></Point>
    </Placemark>
    <Placemark>
      <n>#15 DATALOG-01</n>
      <description>05/09/2026 21:25:40 | Estado: REENVIO PENDIENTE | Bat: 0%</description>
      <styleUrl>#pointStyle</styleUrl>
      <Point><coordinates>-74.284976,4.72964,0</coordinates></Point>
    </Placemark>
    <Placemark>
      <n>#16 DATALOG-01</n>
      <description>05/09/2026 21:41:40 | Estado: REENVIO PENDIENTE | Bat: 0%</description>
      <styleUrl>#pointStyle</styleUrl>
      <Point><coordinates>-74.284988,4.72963,0</coordinates></Point>
    </Placemark>
    <Placemark>
      <n>#17 DATALOG-01</n>
      <description>05/09/2026 21:57:40 | Estado: REENVIO PENDIENTE | Bat: 0%</description>
      <styleUrl>#pointStyle</styleUrl>
      <Point><coordinates>-74.284953,4.729622,0</coordinates></Point>
    </Placemark>
    <Placemark>
      <n>#18 DATALOG-01</n>
      <description>05/09/2026 22:13:40 | Estado: REENVIO PENDIENTE | Bat: 0%</description>
      <styleUrl>#pointStyle</styleUrl>
      <Point><coordinates>-74.284999,4.729672,0</coordinates></Point>
    </Placemark>
    <Placemark>
      <n>#19 DATALOG-01</n>
      <description>05/09/2026 22:45:38 | Estado: REENVIO PENDIENTE | Bat: 0%</description>
      <styleUrl>#pointStyle</styleUrl>
      <Point><coordinates>-74.284965,4.729666,0</coordinates></Point>
    </Placemark>
    <Placemark>
      <n>#20 DATALOG-01</n>
      <description>05/09/2026 23:17:37 | Estado: REENVIO PENDIENTE | Bat: 0%</description>
      <styleUrl>#pointStyle</styleUrl>
      <Point><coordinates>-74.285038,4.729747,0</coordinates></Point>
    </Placemark>
    <Placemark>
      <n>#21 DATALOG-01</n>
      <description>05/09/2026 23:33:37 | Estado: REENVIO PENDIENTE | Bat: 0%</description>
      <styleUrl>#pointStyle</styleUrl>
      <Point><coordinates>-74.28497,4.729664,0</coordinates></Point>
    </Placemark>
    <Placemark>
      <n>#22 DATALOG-01</n>
      <description>06/09/2026 00:21:35 | Estado: REENVIO PENDIENTE | Bat: 0%</description>
      <styleUrl>#pointStyle</styleUrl>
      <Point><coordinates>-74.284909,4.72952,0</coordinates></Point>
    </Placemark>
    <Placemark>
      <n>#23 DATALOG-01</n>
      <description>06/09/2026 00:37:34 | Estado: REENVIO PENDIENTE | Bat: 0%</description>
      <styleUrl>#pointStyle</styleUrl>
      <Point><coordinates>-74.284924,4.729555,0</coordinates></Point>
    </Placemark>
    <Placemark>
      <n>#24 DATALOG-01</n>
      <description>06/09/2026 00:53:33 | Estado: REENVIO PENDIENTE | Bat: 0%</description>
      <styleUrl>#pointStyle</styleUrl>
      <Point><coordinates>-74.284943,4.729577,0</coordinates></Point>
    </Placemark>
    <Placemark>
      <n>#25 DATALOG-01</n>
      <description>06/09/2026 01:09:32 | Estado: REENVIO PENDIENTE | Bat: 0%</description>
      <styleUrl>#pointStyle</styleUrl>
      <Point><coordinates>-74.284987,4.729627,0</coordinates></Point>
    </Placemark>
    <Placemark>
      <n>#26 DATALOG-01</n>
      <description>06/09/2026 01:41:29 | Estado: REENVIO PENDIENTE | Bat: 0%</description>
      <styleUrl>#pointStyle</styleUrl>
      <Point><coordinates>-74.283957,4.728576,0</coordinates></Point>
    </Placemark>
    <Placemark>
      <n>#27 DATALOG-01</n>
      <description>06/09/2026 02:29:29 | Estado: REENVIO PENDIENTE | Bat: 0%</description>
      <styleUrl>#pointStyle</styleUrl>
      <Point><coordinates>-74.348944,4.818283,0</coordinates></Point>
    </Placemark>
    <Placemark>
      <n>#28 DATALOG-01</n>
      <description>06/09/2026 03:01:32 | Estado: REENVIO PENDIENTE | Bat: 0%</description>
      <styleUrl>#pointStyle</styleUrl>
      <Point><coordinates>-74.353031,4.826695,0</coordinates></Point>
    </Placemark>
    <Placemark>
      <n>#29 DATALOG-01</n>
      <description>06/09/2026 03:17:32 | Estado: REENVIO PENDIENTE | Bat: 0%</description>
      <styleUrl>#pointStyle</styleUrl>
      <Point><coordinates>-74.353054,4.826709,0</coordinates></Point>
    </Placemark>
    <Placemark>
      <n>#30 DATALOG-01</n>
      <description>06/09/2026 03:49:33 | Estado: REENVIO PENDIENTE | Bat: 0%</description>
      <styleUrl>#pointStyle</styleUrl>
      <Point><coordinates>-74.353084,4.826698,0</coordinates></Point>
    </Placemark>
    <Placemark>
      <n>#31 DATALOG-01</n>
      <description>06/09/2026 04:05:33 | Estado: REENVIO PENDIENTE | Bat: 0%</description>
      <styleUrl>#pointStyle</styleUrl>
      <Point><coordinates>-74.353061,4.826728,0</coordinates></Point>
    </Placemark>
    <Placemark>
      <n>#32 DATALOG-01</n>
      <description>06/09/2026 04:37:32 | Estado: REENVIO PENDIENTE | Bat: 0%</description>
      <styleUrl>#pointStyle</styleUrl>
      <Point><coordinates>-74.353039,4.826712,0</coordinates></Point>
    </Placemark>
    <Placemark>
      <n>#33 DATALOG-01</n>
      <description>06/09/2026 04:53:31 | Estado: REENVIO PENDIENTE | Bat: 0%</description>
      <styleUrl>#pointStyle</styleUrl>
      <Point><coordinates>-74.353064,4.826707,0</coordinates></Point>
    </Placemark>
    <Placemark>
      <n>#34 DATALOG-01</n>
      <description>06/09/2026 05:25:30 | Estado: REENVIO PENDIENTE | Bat: 0%</description>
      <styleUrl>#pointStyle</styleUrl>
      <Point><coordinates>-74.353095,4.826714,0</coordinates></Point>
    </Placemark>
    <Placemark>
      <n>#35 DATALOG-01</n>
      <description>06/09/2026 05:41:29 | Estado: REENVIO PENDIENTE | Bat: 0%</description>
      <styleUrl>#pointStyle</styleUrl>
      <Point><coordinates>-74.353042,4.826722,0</coordinates></Point>
    </Placemark>
    <Placemark>
      <n>#36 DATALOG-01</n>
      <description>06/09/2026 06:13:26 | Estado: REENVIO PENDIENTE | Bat: 0%</description>
      <styleUrl>#pointStyle</styleUrl>
      <Point><coordinates>-74.353077,4.826717,0</coordinates></Point>
    </Placemark>
    <Placemark>
      <n>#37 DATALOG-01</n>
      <description>06/09/2026 06:29:26 | Estado: REENVIO PENDIENTE | Bat: 0%</description>
      <styleUrl>#pointStyle</styleUrl>
      <Point><coordinates>-74.353054,4.826705,0</coordinates></Point>
    </Placemark>
    <Placemark>
      <n>#38 DATALOG-01</n>
      <description>06/09/2026 06:45:26 | Estado: REENVIO PENDIENTE | Bat: 0%</description>
      <styleUrl>#pointStyle</styleUrl>
      <Point><coordinates>-74.35307,4.826717,0</coordinates></Point>
    </Placemark>
    <Placemark>
      <n>#39 DATALOG-01</n>
      <description>06/09/2026 07:01:26 | Estado: REENVIO PENDIENTE | Bat: 0%</description>
      <styleUrl>#pointStyle</styleUrl>
      <Point><coordinates>-74.353083,4.826727,0</coordinates></Point>
    </Placemark>
    <Placemark>
      <n>#40 DATALOG-01</n>
      <description>06/09/2026 07:17:25 | Estado: REENVIO PENDIENTE | Bat: 0%</description>
      <styleUrl>#pointStyle</styleUrl>
      <Point><coordinates>-74.353043,4.82671,0</coordinates></Point>
    </Placemark>
    <Placemark>
      <n>#41 DATALOG-01</n>
      <description>06/09/2026 07:33:24 | Estado: REENVIO PENDIENTE | Bat: 0%</description>
      <styleUrl>#pointStyle</styleUrl>
      <Point><coordinates>-74.353104,4.826736,0</coordinates></Point>
    </Placemark>
    <Placemark>
      <n>#42 DATALOG-01</n>
      <description>06/09/2026 07:49:24 | Estado: REENVIO PENDIENTE | Bat: 0%</description>
      <styleUrl>#pointStyle</styleUrl>
      <Point><coordinates>-74.353075,4.826729,0</coordinates></Point>
    </Placemark>
    <Placemark>
      <n>#43 DATALOG-01</n>
      <description>06/09/2026 08:05:24 | Estado: REENVIO PENDIENTE | Bat: 0%</description>
      <styleUrl>#pointStyle</styleUrl>
      <Point><coordinates>-74.353023,4.826688,0</coordinates></Point>
    </Placemark>
    <Placemark>
      <n>#44 DATALOG-01</n>
      <description>06/09/2026 08:37:25 | Estado: REENVIO PENDIENTE | Bat: 0%</description>
      <styleUrl>#pointStyle</styleUrl>
      <Point><coordinates>-74.352947,4.82674,0</coordinates></Point>
    </Placemark>
    <Placemark>
      <n>#45 DATALOG-01</n>
      <description>06/09/2026 09:09:26 | Estado: REENVIO PENDIENTE | Bat: 0%</description>
      <styleUrl>#pointStyle</styleUrl>
      <Point><coordinates>-74.352962,4.826761,0</coordinates></Point>
    </Placemark>
    <Placemark>
      <n>#46 DATALOG-01</n>
      <description>06/09/2026 09:41:27 | Estado: REENVIO PENDIENTE | Bat: 0%</description>
      <styleUrl>#pointStyle</styleUrl>
      <Point><coordinates>-74.35295,4.82672,0</coordinates></Point>
    </Placemark>
    <Placemark>
      <n>#47 DATALOG-01</n>
      <description>06/09/2026 10:29:30 | Estado: REENVIO PENDIENTE | Bat: 0%</description>
      <styleUrl>#pointStyle</styleUrl>
      <Point><coordinates>-74.352984,4.826732,0</coordinates></Point>
    </Placemark>
    <Placemark>
      <n>#48 DATALOG-01</n>
      <description>06/09/2026 11:01:32 | Estado: REENVIO PENDIENTE | Bat: 0%</description>
      <styleUrl>#pointStyle</styleUrl>
      <Point><coordinates>-74.352962,4.826736,0</coordinates></Point>
    </Placemark>
    <Placemark>
      <n>#49 DATALOG-01</n>
      <description>06/09/2026 11:17:34 | Estado: REENVIO PENDIENTE | Bat: 0%</description>
      <styleUrl>#pointStyle</styleUrl>
      <Point><coordinates>-74.352947,4.826757,0</coordinates></Point>
    </Placemark>
    <Placemark>
      <n>#50 DATALOG-01</n>
      <description>06/09/2026 11:33:36 | Estado: REENVIO PENDIENTE | Bat: 0%</description>
      <styleUrl>#pointStyle</styleUrl>
      <Point><coordinates>-74.352952,4.826721,0</coordinates></Point>
    </Placemark>
    <Placemark>
      <n>#51 DATALOG-01</n>
      <description>06/09/2026 11:50:30 | Estado: NUEVA UBICACION | Bat: 0%</description>
      <styleUrl>#pointStyle</styleUrl>
      <Point><coordinates>-74.35298067,4.826742167,0</coordinates></Point>
    </Placemark>
    <Placemark>
      <n>#52 DATALOG-01</n>
      <description>06/09/2026 12:05:56 | Estado: NUEVA UBICACION | Bat: 0%</description>
      <styleUrl>#pointStyle</styleUrl>
      <Point><coordinates>-74.35189467,4.825195667,0</coordinates></Point>
    </Placemark>
    <Placemark>
      <n>#53 DATALOG-01</n>
      <description>06/09/2026 12:21:31 | Estado: REENVIO PENDIENTE | Bat: 0%</description>
      <styleUrl>#pointStyle</styleUrl>
      <Point><coordinates>-74.352325,4.82535,0</coordinates></Point>
    </Placemark>
    <Placemark>
      <n>#54 DATALOG-01</n>
      <description>06/09/2026 12:37:31 | Estado: REENVIO PENDIENTE | Bat: 0%</description>
      <styleUrl>#pointStyle</styleUrl>
      <Point><coordinates>-74.352341,4.825346,0</coordinates></Point>
    </Placemark>
    <Placemark>
      <n>#55 DATALOG-01</n>
      <description>06/09/2026 12:54:08 | Estado: NUEVA UBICACION | Bat: 0%</description>
      <styleUrl>#pointStyle</styleUrl>
      <Point><coordinates>-74.35232267,4.825341333,0</coordinates></Point>
    </Placemark>
    <Placemark>
      <n>#56 DATALOG-01</n>
      <description>06/09/2026 13:10:14 | Estado: NUEVA UBICACION | Bat: 0%</description>
      <styleUrl>#pointStyle</styleUrl>
      <Point><coordinates>-74.35231983,4.825330333,0</coordinates></Point>
    </Placemark>
    <Placemark>
      <n>#57 DATALOG-01</n>
      <description>06/09/2026 13:58:38 | Estado: NUEVA UBICACION | Bat: 0%</description>
      <styleUrl>#pointStyle</styleUrl>
      <Point><coordinates>-74.3523045,4.825351833,0</coordinates></Point>
    </Placemark>
    <Placemark>
      <n>#58 DATALOG-01</n>
      <description>06/09/2026 14:14:29 | Estado: REENVIO PENDIENTE | Bat: 0%</description>
      <styleUrl>#pointStyle</styleUrl>
      <Point><coordinates>-74.352306,4.825353,0</coordinates></Point>
    </Placemark>
    <Placemark>
      <n>#59 DATALOG-01</n>
      <description>06/09/2026 14:30:31 | Estado: REENVIO PENDIENTE | Bat: 0%</description>
      <styleUrl>#pointStyle</styleUrl>
      <Point><coordinates>-74.352312,4.825376,0</coordinates></Point>
    </Placemark>
    <Placemark>
      <n>#60 DATALOG-01</n>
      <description>06/09/2026 15:02:35 | Estado: REENVIO PENDIENTE | Bat: 0%</description>
      <styleUrl>#pointStyle</styleUrl>
      <Point><coordinates>-74.35232,4.825387,0</coordinates></Point>
    </Placemark>
    <Placemark>
      <n>#61 DATALOG-01</n>
      <description>06/09/2026 15:18:38 | Estado: REENVIO PENDIENTE | Bat: 0%</description>
      <styleUrl>#pointStyle</styleUrl>
      <Point><coordinates>-74.352311,4.825377,0</coordinates></Point>
    </Placemark>
    <Placemark>
      <n>#62 DATALOG-01</n>
      <description>06/09/2026 15:34:40 | Estado: REENVIO PENDIENTE | Bat: 0%</description>
      <styleUrl>#pointStyle</styleUrl>
      <Point><coordinates>-74.352315,4.825371,0</coordinates></Point>
    </Placemark>
    <Placemark>
      <n>#63 DATALOG-01</n>
      <description>06/09/2026 15:50:43 | Estado: REENVIO PENDIENTE | Bat: 0%</description>
      <styleUrl>#pointStyle</styleUrl>
      <Point><coordinates>-74.352313,4.825362,0</coordinates></Point>
    </Placemark>
    <Placemark>
      <n>#64 DATALOG-01</n>
      <description>06/09/2026 16:06:44 | Estado: REENVIO PENDIENTE | Bat: 0%</description>
      <styleUrl>#pointStyle</styleUrl>
      <Point><coordinates>-74.352297,4.82537,0</coordinates></Point>
    </Placemark>
    <Placemark>
      <n>#65 DATALOG-01</n>
      <description>06/09/2026 16:22:45 | Estado: REENVIO PENDIENTE | Bat: 0%</description>
      <styleUrl>#pointStyle</styleUrl>
      <Point><coordinates>-74.352289,4.825379,0</coordinates></Point>
    </Placemark>
    <Placemark>
      <n>#66 DATALOG-01</n>
      <description>06/09/2026 16:38:44 | Estado: REENVIO PENDIENTE | Bat: 0%</description>
      <styleUrl>#pointStyle</styleUrl>
      <Point><coordinates>-74.352396,4.825363,0</coordinates></Point>
    </Placemark>
    <Placemark>
      <n>#67 DATALOG-01</n>
      <description>06/09/2026 16:54:43 | Estado: REENVIO PENDIENTE | Bat: 0%</description>
      <styleUrl>#pointStyle</styleUrl>
      <Point><coordinates>-74.352328,4.8254,0</coordinates></Point>
    </Placemark>
    <Placemark>
      <n>#68 DATALOG-01</n>
      <description>06/09/2026 17:10:44 | Estado: REENVIO PENDIENTE | Bat: 0%</description>
      <styleUrl>#pointStyle</styleUrl>
      <Point><coordinates>-74.352331,4.825376,0</coordinates></Point>
    </Placemark>
    <Placemark>
      <n>#69 DATALOG-01</n>
      <description>06/09/2026 17:26:45 | Estado: REENVIO PENDIENTE | Bat: 0%</description>
      <styleUrl>#pointStyle</styleUrl>
      <Point><coordinates>-74.352334,4.825393,0</coordinates></Point>
    </Placemark>
</Document></kml>